STARLINK-1534           
1 46030U 20055D   24102.48191047 -.00000105  00000+0  11820-4 0  9990
2 46030  53.0558  16.5020 0001296  88.2986 271.8151 15.06389213203765
STARLINK-1591           
1 46045U 20055U   24102.47820894  .00010745  00000+0  73942-3 0  9996
2 46045  53.0552  16.5180 0001457  78.0542 282.0611 15.06385141203789
STARLINK-1523           
1 46028U 20055B   24102.47083646 -.00002021  00000+0 -11689-3 0  9993
2 46028  53.0558  16.5527 0001380  81.8466 278.2679 15.06386420203819
STARLINK-1580           
1 46041U 20055Q   24102.48559418  .00010914  00000+0  75063-3 0  9998
2 46041  53.0542  16.5737 0001486  91.1087 269.0073 15.06391137203772
STARLINK-1526           
1 46029U 20055C   24102.46345992  .00003336  00000+0  24274-3 0  9990
2 46029  53.0558  16.5865 0001394 103.6478 256.4666 15.06399282203809
STARLINK-1581           
1 46042U 20055R   24102.45978701 -.00002270  00000+0 -13361-3 0  9997
2 46042  53.0584  16.6049 0001484  93.0786 267.0372 15.06390719203765
STARLINK-1582           
1 46043U 20055S   24102.45240564  .00001198  00000+0  99295-4 0  9994
2 46043  53.0554  16.6363 0001470 108.7559 251.3589 15.06392906203798
STARLINK-1555           
1 46032U 20055F   24102.44872062 -.00000487  00000+0 -13832-4 0  9990
2 46032  53.0556  16.6525 0001475 105.9318 254.1834 15.06396932203804
STARLINK-2142           
1 47732U 21017L   24102.46718385 -.00000856  00000+0 -38592-4 0  9996
2 47732  53.0565  16.8109 0001494  84.7392 275.3767 15.06390555173833
STARLINK-1544           
1 46031U 20055E   24102.47459586  .00012427  00000+0  85206-3 0  9992
2 46031  53.0548  17.1148 0001349  82.4834 277.6308 15.06384927203787
STARLINK-4034           
1 52700U 22053AW  24102.50937192 -.00000061  00000+0  14279-4 0  9995
2 52700  53.2190  38.5244 0001384  91.1240 268.9911 15.08838224105840
STARLINK-3148           
1 49736U 21115N   24102.55356143  .00000107  00000+0  24828-4 0  9995
2 49736  53.2205  38.5671 0001590  99.0767 261.0405 15.08838465131406
STARLINK-3225           
1 49737U 21115P   24102.56093086 -.00000327  00000+0 -24281-5 0  9991
2 49737  53.2193  38.6531 0001421  87.9407 272.1748 15.08846139130295
STARLINK-4041           
1 52695U 22053AR  24102.51306792  .00002359  00000+0  16625-3 0  9992
2 52695  53.2186  38.6606 0001448  84.1143 276.0014 15.08844224105847
STARLINK-4030           
1 52698U 22053AU  24102.54988982 -.00000127  00000+0  10107-4 0  9997
2 52698  53.2179  38.6890 0001248 100.6980 259.4153 15.08843860105437
STARLINK-3238           
1 49734U 21115L   24102.55725514  .00011033  00000+0  71000-3 0  9998
2 49734  53.2171  38.6923 0001309  95.0947 265.0194 15.08849776130293
STARLINK-3236           
1 49750U 21115AC  24102.55084746  .00001234  00000+0  95611-4 0  9998
2 49750  53.2186  38.7065 0001395  96.2726 263.8425 15.08846357130293
STARLINK-3229           
1 49751U 21115AD  24102.53148808 -.00000401  00000+0 -70884-5 0  9990
2 49751  53.2206  38.7082 0001545  83.6655 276.4513 15.08839091130299
STARLINK-3210           
1 49755U 21115AH  24102.55821133 -.00000362  00000+0 -46849-5 0  9995
2 49755  53.2176  38.7117 0001179  98.7206 261.3920 15.08847127130294
STARLINK-3200           
1 49753U 21115AF  24102.54621766  .00000790  00000+0  67739-4 0  9995
2 49753  53.2184  38.7175 0001465  87.5113 272.6046 15.08837336130291
STARLINK-3231           
1 49744U 21115W   24102.51771266  .00000326  00000+0  38553-4 0  9990
2 49744  53.2190  38.7392 0001362  91.3182 268.7966 15.08845384130282
STARLINK-4018           
1 52697U 22053AT  24102.53981457  .00010371  00000+0  66883-3 0  9997
2 52697  53.2177  38.7487 0001402  83.5617 276.5535 15.08834809105847
STARLINK-4294           
1 53176U 22083AW  24102.51676371 -.00000707  00000+0 -26357-4 0  9994
2 53176  53.2188  38.7615 0001296  95.8452 264.2688 15.08840667 96312
STARLINK-3233           
1 49746U 21115Y   24102.53517055  .00002308  00000+0  16305-3 0  9990
2 49746  53.2195  38.7696 0001564  90.6665 269.4507 15.08847641130285
STARLINK-4033           
1 52702U 22053AY  24102.53885496  .00000833  00000+0  70422-4 0  9997
2 52702  53.2202  38.7782 0001491  84.2292 275.8871 15.08846691105438
STARLINK-3683           
1 53167U 22083AM  24102.52781106  .00001351  00000+0  10295-3 0  9995
2 53167  53.2186  38.7922 0001348  93.0342 267.0805 15.08843192 96315
STARLINK-3247           
1 49747U 21115Z   24102.52413270  .00000344  00000+0  39711-4 0  9999
2 49747  53.2188  38.8158 0001298  88.7084 271.4057 15.08842358130282
STARLINK-3202           
1 49742U 21115U   24102.52044798  .00000260  00000+0  34417-4 0  9994
2 49742  53.2183  38.8331 0001205  90.4551 269.6579 15.08846238130281
STARLINK-3241           
1 49745U 21115X   24102.51404816 -.00000341  00000+0 -33594-5 0  9995
2 49745  53.2192  38.8358 0001286  92.1837 267.9303 15.08841314130284
STARLINK-3226           
1 49740U 21115S   24102.51037152  .00002248  00000+0  15932-3 0  9995
2 49740  53.2182  38.8492 0001420  96.1360 263.9794 15.08831542130284
STARLINK-3250           
1 49749U 21115AB  24102.55455935  .00000637  00000+0  58085-4 0  9998
2 49749  53.2187  38.9192 0001412  99.6839 260.4312 15.08842363130287
STARLINK-3219           
1 49724U 21115A   24102.54254166  .00003206  00000+0  21931-3 0  9997
2 49724  53.2201  38.9570 0001506  83.5240 276.5923 15.08862032130280
STARLINK-3143           
1 49738U 21115Q   24102.51856722 -.00000430  00000+0 -96600-5 0  9990
2 49738  53.2185  39.0151 0001298  94.3421 265.7718 15.07207568130280
STARLINK-3645           
1 51986U 22025AG  24102.50847740  .00000612  00000+0  56516-4 0  9999
2 51986  53.2176 288.7361 0001371  76.2488 283.8656 15.08842319115812
STARLINK-3663           
1 51976U 22025W   24102.49101735  .00000904  00000+0  74905-4 0  9999
2 51976  53.2179 288.7933 0001673  86.3585 273.7599 15.08839856115810
STARLINK-3655           
1 51983U 22025AD  24102.49289879  .00022255  00000+0  13712-2 0  9993
2 51983  53.2162 288.8721 0000056 246.9483 113.1503 15.09911812115806
STARLINK-3656           
1 51979U 22025Z   24102.51217475  .00001481  00000+0  11108-3 0  9990
2 51979  53.2174 288.8735 0001254  82.2173 277.8961 15.08843606115818
STARLINK-3666           
1 51978U 22025Y   24102.49839893 -.00007060  00000+0 -42560-3 0  9997
2 51978  53.2172 288.9573 0001502  79.7721 280.3441 15.08868663115803
STARLINK-3650           
1 51982U 22025AC  24102.48641445 -.00003366  00000+0 -19352-3 0  9993
2 51982  53.2162 288.9873 0001815  99.9829 260.1368 15.08828077115809
STARLINK-1411           
1 45706U 20035BB  24101.92628227  .00016864  00000+0  11505-2 0  9996
2 45706  53.0561 288.9959 0001385  78.4608 281.6536 15.06328810213971
STARLINK-1396           
1 45681U 20035AA  24101.80941962  .00078683  00000+0  24866-2 0  9990
2 45681  53.0438 289.1205 0006932 215.7209 144.3328 15.32115073213977
STARLINK-2092           
1 47373U 21005AA  24102.32018196  .00002682  00000+0  19889-3 0  9996
2 47373  53.0535 312.2271 0001435  88.3286 271.7867 15.06396959177931
STARLINK-2082           
1 47367U 21005U   24102.31648889 -.00000022  00000+0  17382-4 0  9990
2 47367  53.0558 312.2457 0001311  92.3237 267.7902 15.06402619177935
STARLINK-2084           
1 47368U 21005V   24102.30912327  .00001568  00000+0  12416-3 0  9998
2 47368  53.0543 312.2787 0001395  85.3606 274.7543 15.06395350177932
STARLINK-2119           
1 47397U 21005BA  24102.30543820  .00000707  00000+0  66357-4 0  9996
2 47397  53.0559 312.2956 0001351  81.8304 278.2839 15.06392431177931
STARLINK-2109           
1 47388U 21005AR  24102.30175415  .00000590  00000+0  58531-4 0  9992
2 47388  53.0560 312.3118 0001402  86.3860 273.7289 15.06391135177926
STARLINK-2130           
1 47405U 21005BJ  24102.29806532  .00000796  00000+0  72313-4 0  9993
2 47405  53.0558 312.3283 0001444  87.8913 272.2242 15.06392499177924
STARLINK-2034           
1 47352U 21005D   24102.29437739  .00000351  00000+0  42452-4 0  9991
2 47352  53.0540 312.3468 0001330  90.9743 269.1399 15.06394072177928
STARLINK-2081           
1 47366U 21005T   24102.29069300 -.00001385  00000+0 -74095-4 0  9999
2 47366  53.0564 312.3623 0001482  88.2740 271.8419 15.06390403177924
STARLINK-2108           
1 47387U 21005AQ  24102.28701030 -.00000655  00000+0 -25103-4 0  9999
2 47387  53.0561 312.3804 0001384  97.3298 262.7848 15.06387915177924
STARLINK-2096           
1 47376U 21005AD  24102.28332595 -.00000967  00000+0 -46049-4 0  9991
2 47376  53.0562 312.3962 0001555  94.7633 265.3533 15.06391190177922
STARLINK-2094           
1 47375U 21005AC  24102.27963576 -.00000334  00000+0 -35333-5 0  9991
2 47375  53.0560 312.4108 0001409 103.6455 256.4691 15.06395557177929
STARLINK-2093           
1 47374U 21005AB  24102.27226265 -.00000780  00000+0 -33487-4 0  9999
2 47374  53.0534 312.4180 0000858  96.5190 263.5896 15.06392505177928
STARLINK-2111           
1 47390U 21005AT  24102.27594980  .00000889  00000+0  78562-4 0  9990
2 47390  53.0542 312.4273 0001461  88.8329 271.2827 15.06393544177921
